[{"OBJECT_NAME":"STARLINK-5209","OBJECT_ID":"2022-136L","EPOCH":"2026-03-09T20:21:09.214848","MEAN_MOTION":15.08857145,"ECCENTRICITY":0.00014375,"INCLINATION":53.2181,"RA_OF_ASC_NODE":308.0224,"ARG_OF_PERICENTER":87.1231,"MEAN_ANOMALY":272.9926,"EPHEMERIS_TYPE":0,"CLASSIFICATION_TYPE":"U","NORAD_CAT_ID":54061,"ELEMENT_SET_NO":999,"REV_AT_EPOCH":18736,"BSTAR":0.00012387334,"MEAN_MOTION_DOT":1.685e-5,"MEAN_MOTION_DDOT":0},{"OBJECT_NAME":"COSMOS 397 DEB","OBJECT_ID":"1971-015E","EPOCH":"2026-03-09T10:30:57.269376","MEAN_MOTION":14.28908045,"ECCENTRICITY":0.03830098,"INCLINATION":65.6692,"RA_OF_ASC_NODE":75.3326,"ARG_OF_PERICENTER":62.267,"MEAN_ANOMALY":301.6716,"EPHEMERIS_TYPE":0,"CLASSIFICATION_TYPE":"U","NORAD_CAT_ID":5011,"ELEMENT_SET_NO":999,"REV_AT_EPOCH":70661,"BSTAR":0.0012879344,"MEAN_MOTION_DOT":7.13e-5,"MEAN_MOTION_DDOT":0}]
